{"fetched_at":"2026-07-16T06:42:43.777Z","source":"https://celestrak.org/NORAD/elements/gp.php?GROUP=stations&FORMAT=JSON","constellation":"iss","records":[{"OBJECT_NAME":"ISS (ZARYA)","OBJECT_ID":"1998-067A","EPOCH":"2026-07-15T18:23:37.536288","CLASSIFICATION_TYPE":"U","MEAN_MOTION":15.49019038,"ECCENTRICITY":0.00067189,"INCLINATION":51.6311,"RA_OF_ASC_NODE":158.6576,"ARG_OF_PERICENTER":300.0875,"MEAN_ANOMALY":59.9447,"EPHEMERIS_TYPE":0,"NORAD_CAT_ID":25544,"ELEMENT_SET_NO":999,"REV_AT_EPOCH":57618,"BSTAR":0.000082095193,"MEAN_MOTION_DOT":0.00004078,"MEAN_MOTION_DDOT":0}]}
