ISS (ZARYA)             
1 25544U 98067A   26196.76640667  .00004078  00000+0  82095-4 0  9992
2 25544  51.6311 158.6576 0006718 300.0875  59.9447 15.49019038576187
